[{"OBJECT_NAME":"STARLINK-3765","OBJECT_ID":"2022-041AL","EPOCH":"2026-03-09T08:37:46.460064","MEAN_MOTION":15.08840231,"ECCENTRICITY":0.00013767,"INCLINATION":53.2164,"RA_OF_ASC_NODE":100.6021,"ARG_OF_PERICENTER":93.7919,"MEAN_ANOMALY":266.323,"EPHEMERIS_TYPE":0,"CLASSIFICATION_TYPE":"U","NORAD_CAT_ID":52295,"ELEMENT_SET_NO":999,"REV_AT_EPOCH":21445,"BSTAR":-3.473312e-5,"MEAN_MOTION_DOT":-8.41e-6,"MEAN_MOTION_DDOT":0},{"OBJECT_NAME":"CZ-6A DEB","OBJECT_ID":"2024-140KN","EPOCH":"2026-03-09T13:37:52.587264","MEAN_MOTION":14.78327521,"ECCENTRICITY":0.01349,"INCLINATION":88.7947,"RA_OF_ASC_NODE":265.1899,"ARG_OF_PERICENTER":188.1767,"MEAN_ANOMALY":171.726,"EPHEMERIS_TYPE":0,"CLASSIFICATION_TYPE":"U","NORAD_CAT_ID":60883,"ELEMENT_SET_NO":999,"REV_AT_EPOCH":8325,"BSTAR":0.00065033,"MEAN_MOTION_DOT":5.532e-5,"MEAN_MOTION_DDOT":0}]
